[{"OBJECT_NAME":"STARLINK-3946","OBJECT_ID":"2022-053AP","EPOCH":"2026-03-09T10:31:02.890560","MEAN_MOTION":15.0882697,"ECCENTRICITY":0.00011617,"INCLINATION":53.2174,"RA_OF_ASC_NODE":145.2497,"ARG_OF_PERICENTER":104.0452,"MEAN_ANOMALY":256.067,"EPHEMERIS_TYPE":0,"CLASSIFICATION_TYPE":"U","NORAD_CAT_ID":52693,"ELEMENT_SET_NO":999,"REV_AT_EPOCH":21111,"BSTAR":0.00010542913,"MEAN_MOTION_DOT":1.39e-5,"MEAN_MOTION_DDOT":0},{"OBJECT_NAME":"ST5-C","OBJECT_ID":"2006-008C","EPOCH":"2026-03-09T21:55:58.762848","MEAN_MOTION":14.1017189,"ECCENTRICITY":0.08295695,"INCLINATION":105.4657,"RA_OF_ASC_NODE":199.8685,"ARG_OF_PERICENTER":126.1146,"MEAN_ANOMALY":241.9722,"EPHEMERIS_TYPE":0,"CLASSIFICATION_TYPE":"U","NORAD_CAT_ID":28982,"ELEMENT_SET_NO":999,"REV_AT_EPOCH":54192,"BSTAR":0.0012623918,"MEAN_MOTION_DOT":0.0010872,"MEAN_MOTION_DDOT":6.160981e-6}]
